NORAD_CAT_ID,OBJECT_NAME,OBJECT_TYPE,EPOCH,MEAN_MOTION,ECCENTRICITY,INCLINATION,RA_OF_ASC_NODE,ARG_OF_PERICENTER,MEAN_ANOMALY,BSTAR,MEAN_MOTION_DOT,MEAN_MOTION_DDOT,TLE_LINE0,TLE_LINE1,TLE_LINE2,SEMIMAJOR_AXIS,PERIOD,APOGEE,PERIGEE,DECAYED
53163.0,STARLINK-4104,PAYLOAD,2023-11-02 15:08:51,15.0885495,0.0001398,53.2173,56.2359,81.5854,278.5296,0.00060293,9.325e-05,0.0,0 STARLINK-4104,1 53163U 22083AH  23306.63115263  .00009325  00000-0  60293-3 0  9996,2 53163  53.2173  56.2359 0001398  81.5854 278.5296 15.08854950 71825,6917.835,95.437,540.667,538.733,0.0
53163.0,STARLINK-4104,PAYLOAD,2023-11-03 07:02:43,15.08842534,0.0001651,53.2167,53.2672,77.7164,282.4013,0.00019705,2.85e-05,0.0,0 STARLINK-4104,1 53163U 22083AH  23307.29355550  .00002850  00000-0  19705-3 0  9992,2 53163  53.2167  53.2672 0001651  77.7164 282.4013 15.08842534 72553,6917.873,95.437,540.88,538.596,0.0
53163.0,STARLINK-4104,PAYLOAD,2023-11-03 13:24:15,15.08845269,0.0001465,53.2172,52.0748,86.2069,273.9091,0.00024531,3.619e-05,0.0,0 STARLINK-4104,1 53163U 22083AH  23307.55851497  .00003619  00000-0  24531-3 0  9999,2 53163  53.2172  52.0748 0001465  86.2069 273.9091 15.08845269 71965,6917.864,95.437,540.743,538.716,0.0
53163.0,STARLINK-4104,PAYLOAD,2023-11-04 00:31:57,15.08840452,0.0001525,53.2177,49.9934,89.7913,270.3254,0.00022915,3.361e-05,0.0,0 STARLINK-4104,1 53163U 22083AH  23308.02219749  .00003361  00000-0  22915-3 0  9998,2 53163  53.2177  49.9934 0001525  89.7913 270.3254 15.08840452 72664,6917.879,95.438,540.799,538.689,0.0
53163.0,STARLINK-4104,PAYLOAD,2023-11-04 13:15:03,15.08841133,0.0001689,53.2187,47.6115,100.0321,260.0862,0.00018785,2.703e-05,0.0,0 STARLINK-4104,1 53163U 22083AH  23308.55211833  .00002703  00000-0  18785-3 0  9991,2 53163  53.2187  47.6115 0001689 100.0321 260.0862 15.08841133 72110,6917.877,95.437,540.91,538.573,0.0
53163.0,STARLINK-4104,PAYLOAD,2023-11-05 11:30:26,15.08856552,0.0001615,53.2186,43.4508,96.8478,263.2698,0.0004951,7.604e-05,0.0,0 STARLINK-4104,1 53163U 22083AH  23309.47947415  .00007604  00000-0  49510-3 0  9990,2 53163  53.2186  43.4508 0001615  96.8478 263.2698 15.08856552 72880,6917.83,95.437,540.812,538.578,0.0
53163.0,STARLINK-4104,PAYLOAD,2023-11-05 13:05:49,15.08861604,0.0001577,53.219,43.1527,101.2018,258.9152,0.00058458,9.033e-05,0.0,0 STARLINK-4104,1 53163U 22083AH  23309.54571143  .00009033  00000-0  58458-3 0  9998,2 53163  53.2190  43.1527 0001577 101.2018 258.9152 15.08861604 72263,6917.814,95.436,540.77,538.588,0.0
53163.0,STARLINK-4104,PAYLOAD,2023-11-06 11:21:13,15.08805627,0.0001928,53.2192,38.9892,70.9289,289.1912,-0.0019206,-0.00030696,0.0,0 STARLINK-4104,1 53163U 22083AH  23310.47307142 -.00030696  00000-0 -19206-2 0  9996,2 53163  53.2192  38.9892 0001928  70.9289 289.1912 15.08805627 73033,6917.985,95.44,541.184,538.517,0.0
53163.0,STARLINK-4104,PAYLOAD,2023-11-06 12:56:36,15.08813139,0.0001701,53.2187,38.692,95.3402,264.7784,-0.0014474,-0.00023233,0.0,0 STARLINK-4104,1 53163U 22083AH  23310.53931400 -.00023233  00000-0 -14474-2 0  9994,2 53163  53.2187  38.6920 0001701  95.3402 264.7784 15.08813139 72417,6917.962,95.439,541.004,538.651,0.0
53163.0,STARLINK-4104,PAYLOAD,2023-11-07 12:47:27,15.08798771,0.0001226,53.2182,34.234,86.0457,274.0676,0.0015809,0.00024933,0.0,0 STARLINK-4104,1 53163U 22083AH  23311.53295199  .00024933  00000-0  15809-2 0  9992,2 53163  53.2182  34.2340 0001226  86.0457 274.0676 15.08798771 72563,6918.006,95.44,540.72,539.023,0.0
53163.0,STARLINK-4104,PAYLOAD,2023-11-07 22:19:46,15.08829134,0.0001405,53.2191,32.4481,91.5772,268.5381,0.0018263,0.00028888,0.0,0 STARLINK-4104,1 53163U 22083AH  23311.93039567  .00028888  00000-0  18263-2 0  9991,2 53163  53.2191  32.4481 0001405  91.5772 268.5381 15.08829134 73255,6917.914,95.438,540.751,538.807,0.0
53163.0,STARLINK-4104,PAYLOAD,2023-11-08 11:02:50,15.0887565,0.0001586,53.2188,30.0694,106.8319,253.2847,0.0020004,0.00031723,0.0,0 STARLINK-4104,1 53163U 22083AH  23312.46030537  .00031723  00000-0  20004-2 0  9996,2 53163  53.2188  30.0694 0001586 106.8319 253.2847 15.08875650 73339,6917.771,95.435,540.734,538.539,0.0
53163.0,STARLINK-4104,PAYLOAD,2023-11-08 12:38:13,15.08877747,0.0001531,53.2186,29.7733,75.008,285.1082,0.0017736,0.00028081,0.0,0 STARLINK-4104,1 53163U 22083AH  23312.52654530  .00028081  00000-0  17736-2 0  9999,2 53163  53.2186  29.7733 0001531  75.0080 285.1082 15.08877747 72713,6917.765,95.435,540.689,538.571,0.0
53163.0,STARLINK-4104,PAYLOAD,2023-11-08 22:10:31,15.08879901,0.0001244,53.2188,27.9903,101.7192,258.3939,0.00087289,0.00013646,0.0,0 STARLINK-4104,1 53163U 22083AH  23312.92397601  .00013646  00000-0  87289-3 0  9998,2 53163  53.2188  27.9903 0001244 101.7192 258.3939 15.08879901 72779,6917.758,95.435,540.484,538.763,0.0
53163.0,STARLINK-4104,PAYLOAD,2023-11-09 12:28:58,15.08874445,0.0001379,53.2187,25.3131,108.3289,251.7853,0.00045136,6.909e-05,0.0,0 STARLINK-4104,1 53163U 22083AH  23313.52012606  .00006909  00000-0  45136-3 0  9993,2 53163  53.2187  25.3131 0001379 108.3289 251.7853 15.08874445 73492,6917.775,95.435,540.594,538.686,0.0
53163.0,STARLINK-4104,PAYLOAD,2023-11-09 22:01:17,15.08858557,0.0001493,53.2187,23.5298,84.2539,275.8624,-4.3058e-07,-2.95e-06,0.0,0 STARLINK-4104,1 53163U 22083AH  23313.91756633 -.00000295  00000-0 -43058-6 0  9999,2 53163  53.2187  23.5298 0001493  84.2539 275.8624 15.08858557 72929,6917.824,95.436,540.721,538.656,0.0
53163.0,STARLINK-4104,PAYLOAD,2023-11-09 23:36:40,15.08856561,0.0001479,53.2179,23.2336,86.5966,273.5195,-5.3996e-05,-1.148e-05,0.0,0 STARLINK-4104,1 53163U 22083AH  23313.98380588 -.00001148  00000-0 -53996-4 0  9996,2 53163  53.2179  23.2336 0001479  86.5966 273.5195 15.08856561 73565,6917.83,95.437,540.718,538.672,0.0
53163.0,STARLINK-4104,PAYLOAD,2023-11-10 12:19:45,15.08854629,0.0001503,53.218,20.8528,75.2844,284.8315,-3.8342e-05,-8.98e-06,0.0,0 STARLINK-4104,1 53163U 22083AH  23314.51372453 -.00000898  00000-0 -38342-4 0  9997,2 53163  53.2180  20.8528 0001503  75.2844 284.8315 15.08854629 73013,6917.836,95.437,540.74,538.661,0.0
53163.0,STARLINK-4104,PAYLOAD,2023-11-11 04:13:37,15.08843479,0.0001609,53.2178,17.8811,83.8797,276.2378,3.1455e-05,2.13e-06,0.0,0 STARLINK-4104,1 53163U 22083AH  23315.17612730  .00000213  00000-0  31455-4 0  9992,2 53163  53.2178  17.8811 0001609  83.8797 276.2378 15.08843479 73745,6917.87,95.437,540.848,538.622,0.0
53163.0,STARLINK-4104,PAYLOAD,2023-11-11 10:35:09,15.08844772,0.0001469,53.2181,16.6902,91.7619,268.3541,5.9958e-05,6.67e-06,0.0,0 STARLINK-4104,1 53163U 22083AH  23315.44108670  .00000667  00000-0  59958-4 0  9996,2 53163  53.2181  16.6902 0001469  91.7619 268.3541 15.08844772 73158,6917.866,95.437,540.747,538.715,0.0
53163.0,STARLINK-4104,PAYLOAD,2023-11-11 21:42:51,15.0884457,0.0001402,53.2177,14.6085,96.4833,263.6319,0.00012308,1.672e-05,0.0,0 STARLINK-4104,1 53163U 22083AH  23315.90476578  .00001672  00000-0  12308-3 0  9996,2 53163  53.2177  14.6085 0001402  96.4833 263.6319 15.08844570 73225,6917.866,95.437,540.701,538.762,0.0
53163.0,STARLINK-4104,PAYLOAD,2023-11-12 10:25:57,15.08842573,0.0001675,53.2178,12.229,94.9541,265.1642,0.00015848,2.235e-05,0.0,0 STARLINK-4104,1 53163U 22083AH  23316.43468945  .00002235  00000-0  15848-3 0  9992,2 53163  53.2178  12.2290 0001675  94.9541 265.1642 15.08842573 73934,6917.873,95.437,540.896,538.579,0.0
53163.0,STARLINK-4104,PAYLOAD,2023-11-13 13:27:29,15.08851154,0.0001731,53.2187,7.1726,102.9444,257.1742,0.00020571,2.988e-05,0.0,0 STARLINK-4104,1 53163U 22083AH  23317.56076263  .00002988  00000-0  20571-3 0  9999,2 53163  53.2187   7.1726 0001731 102.9444 257.1742 15.08851154 73472,6917.846,95.437,540.909,538.514,0.0
53163.0,STARLINK-4104,PAYLOAD,2023-11-14 03:45:58,15.08839726,0.0001966,53.2194,4.4907,123.2162,236.9019,3.7076e-05,3.02e-06,0.0,0 STARLINK-4104,1 53163U 22083AH  23318.15692848  .00000302  00000-0  37076-4 0  9995,2 53163  53.2194   4.4907 0001966 123.2162 236.9019 15.08839726 74197,6917.881,95.438,541.106,538.386,0.0
53163.0,STARLINK-4104,PAYLOAD,2023-11-14 13:18:17,15.08846409,0.0001592,53.2187,2.713,97.1789,262.9385,0.00014523,2.024e-05,0.0,0 STARLINK-4104,1 53163U 22083AH  23318.55436496  .00002024  00000-0  14523-3 0  9998,2 53163  53.2187   2.7130 0001592  97.1789 262.9385 15.08846409 73625,6917.861,95.437,540.827,538.624,0.0
53163.0,STARLINK-4104,PAYLOAD,2023-11-14 19:39:49,15.08842213,0.0001494,53.218,1.5223,93.0564,267.06,8.5357e-05,1.071e-05,0.0,0 STARLINK-4104,1 53163U 22083AH  23318.81932705  .00001071  00000-0  85357-4 0  9996,2 53163  53.2180   1.5223 0001494  93.0564 267.0600 15.08842213 73664,6917.874,95.437,540.772,538.705,0.0
53163.0,STARLINK-4104,PAYLOAD,2023-11-15 09:58:18,15.08837321,0.0001659,53.2193,358.8477,101.0884,259.0295,-7.2388e-05,-1.44e-05,0.0,0 STARLINK-4104,1 53163U 22083AH  23319.41549039 -.00001440  00000-0 -72388-4 0  9999,2 53163  53.2193 358.8477 0001659 101.0884 259.0295 15.08837321 74380,6917.889,95.438,540.901,538.606,0.0
53163.0,STARLINK-4104,PAYLOAD,2023-11-15 19:30:37,15.08841166,0.0001724,53.2206,357.0635,87.6854,272.4335,-2.859e-05,-7.43e-06,0.0,0 STARLINK-4104,1 53163U 22083AH  23319.81293285 -.00000743  00000-0 -28590-4 0  9993,2 53163  53.2206 357.0635 0001724  87.6854 272.4335 15.08841166 73814,6917.877,95.437,540.934,538.549,0.0
53163.0,STARLINK-4104,PAYLOAD,2023-11-16 08:13:42,15.08839481,0.0001748,53.2204,354.6847,100.8518,259.2671,8.143e-05,1.008e-05,0.0,0 STARLINK-4104,1 53163U 22083AH  23320.34285408  .00001008  00000-0  81430-4 0  9996,2 53163  53.2204 354.6847 0001748 100.8518 259.2671 15.08839481 73892,6917.882,95.438,540.956,538.538,0.0
53163.0,STARLINK-4104,PAYLOAD,2023-11-16 19:21:24,15.08844834,0.0001674,53.2203,352.604,90.4191,269.6993,3.4134e-05,2.55e-06,0.0,0 STARLINK-4104,1 53163U 22083AH  23320.80653178  .00000255  00000-0  34134-4 0  9992,2 53163  53.2203 352.6040 0001674  90.4191 269.6993 15.08844834 73961,6917.866,95.437,540.889,538.573,0.0
